[{"OBJECT_NAME":"YAOGAN-43 01H","OBJECT_ID":"2024-148H","EPOCH":"2026-03-10T00:13:57.702432","MEAN_MOTION":15.25826805,"ECCENTRICITY":0.000635,"INCLINATION":34.994,"RA_OF_ASC_NODE":64.6147,"ARG_OF_PERICENTER":359.2394,"MEAN_ANOMALY":0.8311,"EPHEMERIS_TYPE":0,"CLASSIFICATION_TYPE":"U","NORAD_CAT_ID":60465,"ELEMENT_SET_NO":999,"REV_AT_EPOCH":8702,"BSTAR":0.00039232254,"MEAN_MOTION_DOT":0.00010268,"MEAN_MOTION_DDOT":0},{"OBJECT_NAME":"STARLINK-33911","OBJECT_ID":"2025-091C","EPOCH":"2026-03-08T23:10:17.967936","MEAN_MOTION":15.27584249,"ECCENTRICITY":0.00015939,"INCLINATION":43.0021,"RA_OF_ASC_NODE":49.4639,"ARG_OF_PERICENTER":251.2035,"MEAN_ANOMALY":108.8644,"EPHEMERIS_TYPE":0,"CLASSIFICATION_TYPE":"U","NORAD_CAT_ID":63777,"ELEMENT_SET_NO":999,"REV_AT_EPOCH":4887,"BSTAR":0.0012813119,"MEAN_MOTION_DOT":0.0003517,"MEAN_MOTION_DDOT":0}]
